NORAD_CAT_ID,OBJECT_NAME,OBJECT_TYPE,EPOCH,MEAN_MOTION,ECCENTRICITY,INCLINATION,RA_OF_ASC_NODE,ARG_OF_PERICENTER,MEAN_ANOMALY,BSTAR,MEAN_MOTION_DOT,MEAN_MOTION_DDOT,TLE_LINE0,TLE_LINE1,TLE_LINE2,SEMIMAJOR_AXIS,PERIOD,APOGEE,PERIGEE,DECAYED
50156.0,STARLINK-3317,PAYLOAD,2022-05-27 20:25:38,15.08857536,0.0002209,53.218,332.4273,37.7121,322.4025,0.0006765,0.000105,0.0,0 STARLINK-3317,1 50156U 21125A   22147.85113841  .00010500  00000-0  67650-3 0  9998,2 50156  53.2180 332.4273 0002209  37.7121 322.4025 15.08857536 28024,6917.8269999999975,95.436,541.22,538.164,0.0
50156.0,STARLINK-3317,PAYLOAD,2022-05-28 06:00:02,15.08844501,0.0002126,53.2178,330.63699999999994,34.1108,333.8677,0.00031781,4.774e-05,0.0,0 STARLINK-3317,1 50156U 21125A   22148.25002315  .00004774  00000-0  31781-3 0  9998,2 50156  53.2178 330.6370 0002126  34.1108 333.8677 15.08844501 27579,6917.8669999999975,95.437,541.202,538.261,0.0
50156.0,STARLINK-3317,PAYLOAD,2022-05-28 14:00:01,15.08882601,0.0002094,53.2181,329.1406,35.6409,343.8697,-0.0029298,-0.0004667,0.0,0 STARLINK-3317,1 50156U 21125A   22148.58334491 -.00046670  00000-0 -29298-2 0  9999,2 50156  53.2181 329.1406 0002094  35.6409 343.8697 15.08882601  1309,6917.75,95.435,541.064,538.1669999999998,0.0
50156.0,STARLINK-3317,PAYLOAD,2022-05-28 20:16:24,15.08858739,0.0002258,53.2183,327.9667,39.333,320.7826,0.00037987,5.766e-05,0.0,0 STARLINK-3317,1 50156U 21125A   22148.84473035  .00005766  00000-0  37987-3 0  9990,2 50156  53.2183 327.9667 0002258  39.3330 320.7826 15.08858739 28179,6917.823,95.436,541.25,538.126,0.0
50156.0,STARLINK-3317,PAYLOAD,2022-05-29 14:00:01,15.088580300000002,0.0002135,53.2184,324.6514,36.7813,17.5335,-0.0034498,-0.00054803,0.0,0 STARLINK-3317,1 50156U 21125A   22149.58334491 -.00054803  00000-0 -34498-2 0  9995,2 50156  53.2184 324.6514 0002135  36.7813  17.5335 15.08858030 27771,6917.825,95.436,541.1669999999998,538.2130000000002,0.0
50156.0,STARLINK-3317,PAYLOAD,2022-05-29 22:00:00,15.08788857,0.0002281,53.2182,323.1565,31.9646,33.9499,0.0032769,0.00052178,0.0,0 STARLINK-3317,1 50156U 21125A   22149.91667824  .00052178  00000-0  32769-2 0  9991,2 50156  53.2182 323.1565 0002281  31.9646  33.9499 15.08788857  1305,6918.0369999999975,95.441,541.48,538.3240000000002,0.0
50156.0,STARLINK-3317,PAYLOAD,2022-05-30 06:00:00,15.08813909,0.0002075,53.2182,321.6584,34.645,42.8351,0.0012608,0.0001982,0.0,0 STARLINK-3317,1 50156U 21125A   22150.25001157  .00019820  00000-0  12608-2 0  9998,2 50156  53.2182 321.6584 0002075  34.6450  42.8351 15.08813909 27876,6917.96,95.439,541.261,538.39,0.0
50156.0,STARLINK-3317,PAYLOAD,2022-05-30 13:36:27,15.08833413,0.0002213,53.2189,320.2354,35.5922,324.5218,-9.7357e-05,-1.837e-05,0.0,0 STARLINK-3317,1 50156U 21125A   22150.56698480 -.00001837  00000-0 -97357-4 0  9990,2 50156  53.2189 320.2354 0002213  35.5922 324.5218 15.08833413 28438,6917.901,95.438,541.2959999999998,538.235,0.0
50156.0,STARLINK-3317,PAYLOAD,2022-05-30 19:57:59,15.08835673,0.0002235,53.2191,319.0465,36.0441,324.0702,-8.9168e-05,-1.707e-05,0.0,0 STARLINK-3317,1 50156U 21125A   22150.83194350 -.00001707  00000-0 -89168-4 0  9994,2 50156  53.2191 319.0465 0002235  36.0441 324.0702 15.08835673 28473,6917.894,95.438,541.305,538.212,0.0
50156.0,STARLINK-3317,PAYLOAD,2022-05-31 06:00:02,15.08836948,0.0002089,53.2181,317.1693,37.1774,75.1138,1.2225e-05,-9.4e-07,0.0,0 STARLINK-3317,1 50156U 21125A   22151.25002315 -.00000094  00000-0  12225-4 0  9997,2 50156  53.2181 317.1693 0002089  37.1774  75.1138 15.08836948 28026,6917.89,95.438,541.2,538.31,0.0
50156.0,STARLINK-3317,PAYLOAD,2022-05-31 22:00:00,15.08805789,0.0002352,53.2177,314.1783,36.9511,98.4601,0.0031093,0.00049499,0.0,0 STARLINK-3317,1 50156U 21125A   22151.91667824  .00049499  00000-0  31093-2 0  9995,2 50156  53.2177 314.1783 0002352  36.9511  98.4601 15.08805789  1301,6917.985,95.44,541.477,538.2230000000002,0.0
50156.0,STARLINK-3317,PAYLOAD,2022-06-01 14:00:01,15.08856181,0.0002229,53.2179,311.1847,41.9218,116.6492,-0.0014708,-0.00023631,0.0,0 STARLINK-3317,1 50156U 21125A   22152.58334491 -.00023631  00000-0 -14708-2 0  9996,2 50156  53.2179 311.1847 0002229  41.9218 116.6492 15.08856181 28227,6917.831,95.437,541.238,538.154,0.0
50156.0,STARLINK-3317,PAYLOAD,2022-06-01 20:00:01,15.08832249,0.0002353,53.2177,310.0637,38.69,38.5895,0.0014979,0.00023627,0.0,0 STARLINK-3317,1 50156U 21125A   22152.83334491  .00023627  00000-0  14979-2 0  9997,2 50156  53.2177 310.0637 0002353  38.6900  38.5895 15.08832249  1307,6917.904,95.438,541.3969999999998,538.141,0.0
50156.0,STARLINK-3317,PAYLOAD,2022-06-02 16:19:35,15.08837522,0.0002488,53.2175,306.2592,44.9351,315.1842,2.7068e-05,1.42e-06,0.0,0 STARLINK-3317,1 50156U 21125A   22153.68027021  .00000142  00000-0  27068-4 0  9991,2 50156  53.2175 306.2592 0002488  44.9351 315.1842 15.08837522 28383,6917.888000000001,95.438,541.474,538.0319999999998,0.0
50156.0,STARLINK-3317,PAYLOAD,2022-06-02 19:30:21,15.08832668,0.0002325,53.2198,305.6661,42.9904,317.127,8.0777e-06,-1.6e-06,0.0,0 STARLINK-3317,1 50156U 21125A   22153.81275348 -.00000160  00000-0  80777-5 0  9991,2 50156  53.2198 305.6661 0002325  42.9904 317.1270 15.08832668 28923,6917.903,95.438,541.376,538.159,0.0
50156.0,STARLINK-3317,PAYLOAD,2022-06-03 09:48:47,15.08710406,0.0001814,53.2193,302.9884,60.2251,299.8921,0.0015023,0.00023617,0.0,0 STARLINK-3317,1 50156U 21125A   22154.40888664  .00023617  00000-0  15023-2 0  9998,2 50156  53.2193 302.9884 0001814  60.2251 299.8921 15.08710406 28491,6918.276999999999,95.446,541.3969999999998,538.887,0.0
50156.0,STARLINK-3317,PAYLOAD,2022-06-03 19:21:08,15.08746094,0.0001939,53.2191,301.2052,51.0715,309.0449,0.0012655,0.00019858,0.0,0 STARLINK-3317,1 50156U 21125A   22154.80634521  .00019858  00000-0  12655-2 0  9993,2 50156  53.2191 301.2052 0001939  51.0715 309.0449 15.08746094 28557,6918.167,95.443,541.374,538.691,0.0
50156.0,STARLINK-3317,PAYLOAD,2022-06-04 03:18:03,15.08847305,0.0002313,53.2195,299.7185,43.6661,316.4514,0.00010008,1.305e-05,0.0,0 STARLINK-3317,1 50156U 21125A   22155.13754063  .00001305  00000-0  10008-3 0  9993,2 50156  53.2195 299.7185 0002313  43.6661 316.4514 15.08847305 28601,6917.858,95.437,541.323,538.123,0.0
50156.0,STARLINK-3317,PAYLOAD,2022-06-04 12:50:22,15.08843768,0.0002253,53.2193,297.9338,44.7199,315.3975,9.6382e-05,1.246e-05,0.0,0 STARLINK-3317,1 50156U 21125A   22155.53498136  .00001246  00000-0  96382-4 0  9997,2 50156  53.2193 297.9338 0002253  44.7199 315.3975 15.08843768 29182,6917.869000000002,95.437,541.2919999999998,538.175,0.0
50156.0,STARLINK-3317,PAYLOAD,2022-06-05 22:00:00,15.08836217,0.0002376,53.2179,291.7338,35.5765,273.723,0.0002514,3.715e-05,0.0,0 STARLINK-3317,1 50156U 21125A   22156.91667824  .00003715  00000-0  25140-3 0  9998,2 50156  53.2179 291.7338 0002376  35.5765 273.7230 15.08836217 28878,6917.892,95.438,541.401,538.113,0.0
50156.0,STARLINK-3317,PAYLOAD,2022-06-06 14:00:01,15.08859562,0.0002292,53.2181,288.7408,38.3535,294.1308,-0.0020351,-0.0003255,0.0,0 STARLINK-3317,1 50156U 21125A   22157.58334491 -.00032550  00000-0 -20351-2 0  9992,2 50156  53.2181 288.7408 0002292  38.3535 294.1308 15.08859562  1308,6917.821,95.436,541.271,538.1,0.0
50156.0,STARLINK-3317,PAYLOAD,2022-06-06 18:53:29,15.08840388,0.0002304,53.2189,287.824,38.9849,321.1309,4.7499e-05,4.68e-06,0.0,0 STARLINK-3317,1 50156U 21125A   22157.78714426  .00000468  00000-0  47499-4 0  9999,2 50156  53.2189 287.8240 0002304  38.9849 321.1309 15.08840388 29520,6917.879,95.438,541.3380000000002,538.15,0.0
50156.0,STARLINK-3317,PAYLOAD,2022-06-07 01:15:01,15.0884197,0.0002292,53.2188,286.6348,39.2333,320.8825,3.0186e-05,1.92e-06,0.0,0 STARLINK-3317,1 50156U 21125A   22158.05210367  .00000192  00000-0  30186-4 0  9994,2 50156  53.2188 286.6348 0002292  39.2333 320.8825 15.08841970 29047,6917.874,95.437,541.325,538.154,0.0
50156.0,STARLINK-3317,PAYLOAD,2022-06-07 12:22:44,15.08828399,0.0002291,53.2198,284.5544,42.7109,317.4061,3.3808e-05,2.5e-06,0.0,0 STARLINK-3317,1 50156U 21125A   22158.51579309  .00000250  00000-0  33808-4 0  9998,2 50156  53.2198 284.5544 0002291  42.7109 317.4061 15.08828399 29114,6917.916,95.438,541.366,538.196,0.0
50156.0,STARLINK-3317,PAYLOAD,2022-06-07 20:19:40,15.08832802,0.0002312,53.2197,283.0679,41.4586,318.6581,5.0133e-05,5.09e-06,0.0,0 STARLINK-3317,1 50156U 21125A   22158.84699145  .00000509  00000-0  50133-4 0  9992,2 50156  53.2197 283.0679 0002312  41.4586 318.6581 15.08832802 29681,6917.901999999999,95.438,541.367,538.168,0.0
50156.0,STARLINK-3317,PAYLOAD,2022-06-08 12:13:30,15.08848006,0.0002246,53.2193,280.0939,42.1827,317.9338,7.5194e-05,9.09e-06,0.0,0 STARLINK-3317,1 50156U 21125A   22159.50938074  .00000909  00000-0  75194-4 0  9991,2 50156  53.2193 280.0939 0002246  42.1827 317.9338 15.08848006 29264,6917.856,95.437,541.275,538.1669999999998,0.0
50156.0,STARLINK-3317,PAYLOAD,2022-06-08 20:10:27,15.08836804,0.0002633,53.2196,278.6076,40.8338,319.2851,-1.8499e-05,-5.83e-06,0.0,0 STARLINK-3317,1 50156U 21125A   22159.84059109 -.00000583  00000-0 -18499-4 0  9996,2 50156  53.2196 278.6076 0002633  40.8338 319.2851 15.08836804 29835,6917.89,95.438,541.577,537.934,0.0
50156.0,STARLINK-3317,PAYLOAD,2022-06-09 10:28:56,15.08822324,0.0002271,53.2189,275.9305,38.5853,321.5301,-3.5476e-05,-8.53e-06,0.0,0 STARLINK-3317,1 50156U 21125A   22160.43676226 -.00000853  00000-0 -35476-4 0  9992,2 50156  53.2189 275.9305 0002271  38.5853 321.5301 15.08822324 29924,6917.934,95.439,541.37,538.2280000000002,0.0
50156.0,STARLINK-3317,PAYLOAD,2022-06-09 16:50:28,15.08824539,0.0002236,53.219,274.741,37.8846,322.2303,-7.136100000000001e-05,-1.423e-05,0.0,0 STARLINK-3317,1 50156U 21125A   22160.70172453 -.00001423  00000-0 -71361-4 0  9992,2 50156  53.2190 274.7410 0002236  37.8846 322.2303 15.08824539 29442,6917.928000000001,95.439,541.339,538.246,0.0
